O3B MPOWER F1           
1 54755U 22174A   24131.27819240 -.00000025  00000+0  00000+0 0  9992
2 54755   0.0645   0.7177 0006766  52.5754 155.3051  5.00114554 26944
